start=new Date('2022-02-14T00:00:00.000Z').valueOf();
sats=[{"CLASSIFICATION_TYPE":"U","TIME_SYSTEM":"UTC","EPOCH":"2022-02-13T12:04:33.994272","BSTAR":"0.00060815000000","GP_ID":"195893858","ECCENTRICITY":"0.00017710","DECAY_DATE":null,"INCLINATION":"53.0528","SEMIMAJOR_AXIS":"6925.392","RA_OF_ASC_NODE":"278.8899","ELEMENT_SET_NO":"999","FILE":"3299685","MEAN_MOTION":"15.06385932","COUNTRY_CODE":"US","NORAD_CAT_ID":"48314","PERIOD":"95.593","OBJECT_ID":"2021-036AQ","SITE":"AFETR","LAUNCH_DATE":"2021-04-29","CENTER_NAME":"EARTH","MEAN_ELEMENT_THEORY":"SGP4","TLE_LINE1":"1 48314U 21036AQ  22044.50317123  .00008785  00000-0  60815-3 0  9997","RCS_SIZE":"LARGE","OBJECT_TYPE":"PAYLOAD","MEAN_MOTION_DDOT":"0.0000000000000","MEAN_ANOMALY":"288.4260","MEAN_MOTION_DOT":"0.00008785","OBJECT_NAME":"STARLINK-2549","APOAPSIS":"548.483","REV_AT_EPOCH":"4431","PERIAPSIS":"546.030","TLE_LINE2":"2 48314  53.0528 278.8899 0001771  71.6922 288.4260 15.06385932 44313","EPHEMERIS_TYPE":"0","ARG_OF_PERICENTER":"71.6922","REF_FRAME":"TEME"},{"RCS_SIZE":"LARGE","MEAN_ELEMENT_THEORY":"SGP4","TLE_LINE1":"1 48315U 21036AR  22044.83122244 -.00002258  00000-0 -13278-3 0  9994","LAUNCH_DATE":"2021-04-29","CENTER_NAME":"EARTH","SITE":"AFETR","OBJECT_ID":"2021-036AR","PERIOD":"95.593","COUNTRY_CODE":"US","MEAN_MOTION":"15.06385568","NORAD_CAT_ID":"48315","FILE":"3299756","RA_OF_ASC_NODE":"277.4184","SEMIMAJOR_AXIS":"6925.393","ELEMENT_SET_NO":"999","INCLINATION":"53.0527","DECAY_DATE":null,"GP_ID":"195899106","ECCENTRICITY":"0.00014400","BSTAR":"-0.00013278000000","EPOCH":"2022-02-13T19:56:57.618816","TIME_SYSTEM":"UTC","CLASSIFICATION_TYPE":"U","REF_FRAME":"TEME","ARG_OF_PERICENTER":"67.3851","EPHEMERIS_TYPE":"0","TLE_LINE2":"2 48315  53.0527 277.4184 0001440  67.3851 292.7290 15.06385568 45015","PERIAPSIS":"546.261","REV_AT_EPOCH":"4501","APOAPSIS":"548.255","OBJECT_NAME":"STARLINK-2506","MEAN_MOTION_DOT":"-0.00002258","MEAN_MOTION_DDOT":"0.0000000000000","MEAN_ANOMALY":"292.7290","OBJECT_TYPE":"PAYLOAD"},{"CLASSIFICATION_TYPE":"U","TIME_SYSTEM":"UTC","GP_ID":"195900602","ECCENTRICITY":"0.00016240","EPOCH":"2022-02-13T19:51:38.391552","BSTAR":"-0.00007283700000","DECAY_DATE":null,"SEMIMAJOR_AXIS":"6925.359","ELEMENT_SET_NO":"999","RA_OF_ASC_NODE":"277.4356","INCLINATION":"53.0533","MEAN_MOTION":"15.06396502","COUNTRY_CODE":"US","NORAD_CAT_ID":"48316","FILE":"3299819","OBJECT_ID":"2021-036AS","SITE":"AFETR","PERIOD":"95.592","TLE_LINE1":"1 48316U 21036AS  22044.82752768 -.00001366  00000-0 -72837-4 0  9990","MEAN_ELEMENT_THEORY":"SGP4","CENTER_NAME":"EARTH","LAUNCH_DATE":"2021-04-29","RCS_SIZE":"LARGE","OBJECT_TYPE":"PAYLOAD","MEAN_ANOMALY":"293.7660","MEAN_MOTION_DDOT":"0.0000000000000","MEAN_MOTION_DOT":"-0.00001366","OBJECT_NAME":"STARLINK-2507","APOAPSIS":"548.349","PERIAPSIS":"546.100","REV_AT_EPOCH":"4501","EPHEMERIS_TYPE":"0","ARG_OF_PERICENTER":"66.3499","TLE_LINE2":"2 48316  53.0533 277.4356 0001624  66.3499 293.7660 15.06396502 45017","REF_FRAME":"TEME"},{"OBJECT_NAME":"STARLINK-2513","APOAPSIS":"548.436","OBJECT_TYPE":"PAYLOAD","MEAN_MOTION_DOT":"-0.00005637","MEAN_MOTION_DDOT":"0.0000000000000","MEAN_ANOMALY":"291.4723","TLE_LINE2":"2 48317  53.0540 279.5357 0001671  68.6444 291.4723 15.06378723 44296","EPHEMERIS_TYPE":"0","ARG_OF_PERICENTER":"68.6444","REF_FRAME":"TEME","PERIAPSIS":"546.122","REV_AT_EPOCH":"4429","DECAY_DATE":null,"INCLINATION":"53.0540","RA_OF_ASC_NODE":"279.5357","SEMIMAJOR_AXIS":"6925.414","ELEMENT_SET_NO":"999","CLASSIFICATION_TYPE":"U","TIME_SYSTEM":"UTC","EPOCH":"2022-02-13T08:37:33.384288","BSTAR":"-0.00036000000000","ECCENTRICITY":"0.00016710","GP_ID":"195893109","CENTER_NAME":"EARTH","LAUNCH_DATE":"2021-04-29","MEAN_ELEMENT_THEORY":"SGP4","TLE_LINE1":"1 48317U 21036AT  22044.35941417 -.00005637  00000-0 -36000-3 0  9996","RCS_SIZE":"LARGE","FILE":"3299685","NORAD_CAT_ID":"48317","COUNTRY_CODE":"US","MEAN_MOTION":"15.06378723","PERIOD":"95.593","OBJECT_ID":"2021-036AT","SITE":"AFETR"},{"TLE_LINE2":"2 48318  53.0541 287.4749 0001445  65.6808 294.4332 15.06397592 44868","ARG_OF_PERICENTER":"65.6808","EPHEMERIS_TYPE":"0","REF_FRAME":"TEME","PERIAPSIS":"546.220","REV_AT_EPOCH":"4486","OBJECT_NAME":"STARLINK-2509","APOAPSIS":"548.222","OBJECT_TYPE":"PAYLOAD","MEAN_ANOMALY":"294.4332","MEAN_MOTION_DDOT":"0.0000000000000","MEAN_MOTION_DOT":"-0.00000691","CENTER_NAME":"EARTH","LAUNCH_DATE":"2021-04-29","TLE_LINE1":"1 48318U 21036AU  22044.81554790 -.00000691  00000-0 -27474-4 0  9993","MEAN_ELEMENT_THEORY":"SGP4","RCS_SIZE":"LARGE","FILE":"3299920","MEAN_MOTION":"15.06397592","COUNTRY_CODE":"US","NORAD_CAT_ID":"48318","PERIOD":"95.592","SITE":"AFETR","OBJECT_ID":"2021-036AU","DECAY_DATE":null,"INCLINATION":"53.0541","SEMIMAJOR_AXIS":"6925.356","RA_OF_ASC_NODE":"287.4749","ELEMENT_SET_NO":"999","TIME_SYSTEM":"UTC","CLASSIFICATION_TYPE":"U","BSTAR":"-0.00002747400000","EPOCH":"2022-02-13T19:34:23.338560","GP_ID":"195903154","ECCENTRICITY":"0.00014450"},{"REV_AT_EPOCH":"4416","PERIAPSIS":"546.141","REF_FRAME":"TEME","ARG_OF_PERICENTER":"63.7301","EPHEMERIS_TYPE":"0","TLE_LINE2":"2 48319  53.0529 289.2694 0001706  63.7301 296.3863 15.06364374 44166","MEAN_MOTION_DOT":"-0.00008813","MEAN_MOTION_DDOT":"0.0000000000000","MEAN_ANOMALY":"296.3863","OBJECT_TYPE":"PAYLOAD","APOAPSIS":"548.504","OBJECT_NAME":"STARLINK-2512","SITE":"AFETR","OBJECT_ID":"2021-036AV","PERIOD":"95.594","NORAD_CAT_ID":"48319","COUNTRY_CODE":"US","MEAN_MOTION":"15.06364374","FILE":"3299685","RCS_SIZE":"LARGE","MEAN_ELEMENT_THEORY":"SGP4","TLE_LINE1":"1 48319U 21036AV  22044.41377508 -.00008813  00000-0 -57405-3 0  9990","LAUNCH_DATE":"2021-04-29","CENTER_NAME":"EARTH","ECCENTRICITY":"0.00017060","GP_ID":"195894597","BSTAR":"-0.00057405000000","EPOCH":"2022-02-13T09:55:50.166912","TIME_SYSTEM":"UTC","CLASSIFICATION_TYPE":"U","SEMIMAJOR_AXIS":"6925.458","ELEMENT_SET_NO":"999","RA_OF_ASC_NODE":"289.2694","INCLINATION":"53.0529","DECAY_DATE":null},{"OBJECT_TYPE":"PAYLOAD","MEAN_ANOMALY":"305.1100","MEAN_MOTION_DDOT":"0.0000000000000","MEAN_MOTION_DOT":"0.00002375","OBJECT_NAME":"STARLINK-2029","APOAPSIS":"548.577","PERIAPSIS":"546.107","REV_AT_EPOCH":"4486","EPHEMERIS_TYPE":"0","ARG_OF_PERICENTER":"55.0057","TLE_LINE2":"2 48320  53.0559 287.5100 0001783  55.0057 305.1100 15.06358055 44860","REF_FRAME":"TEME","CLASSIFICATION_TYPE":"U","TIME_SYSTEM":"UTC","GP_ID":"195898661","ECCENTRICITY":"0.00017830","EPOCH":"2022-02-13T19:23:47.137344","BSTAR":"0.00017850000000","DECAY_DATE":null,"RA_OF_ASC_NODE":"287.5100","SEMIMAJOR_AXIS":"6925.477","ELEMENT_SET_NO":"999","INCLINATION":"53.0559","COUNTRY_CODE":"US","NORAD_CAT_ID":"48320","MEAN_MOTION":"15.06358055","FILE":"3299749","OBJECT_ID":"2021-036AW","SITE":"AFETR","PERIOD":"95.595","MEAN_ELEMENT_THEORY":"SGP4","TLE_LINE1":"1 48320U 21036AW  22044.80818446  .00002375  00000-0  17850-3 0  9991","CENTER_NAME":"EARTH","LAUNCH_DATE":"2021-04-29","RCS_SIZE":"LARGE"},{"SITE":"AFETR","OBJECT_ID":"2021-036AX","PERIOD":"95.593","COUNTRY_CODE":"US","NORAD_CAT_ID":"48321","MEAN_MOTION":"15.06390331","FILE":"3299749","RCS_SIZE":"LARGE","TLE_LINE1":"1 48321U 21036AX  22044.73813893 -.00000705  00000-0 -28439-4 0  9998","MEAN_ELEMENT_THEORY":"SGP4","LAUNCH_DATE":"2021-04-29","CENTER_NAME":"EARTH","ECCENTRICITY":"0.00015820","GP_ID":"195898672","BSTAR":"-0.00002843900000","EPOCH":"2022-02-13T17:42:55.203552","TIME_SYSTEM":"UTC","CLASSIFICATION_TYPE":"U","SEMIMAJOR_AXIS":"6925.378","RA_OF_ASC_NODE":"287.8174","ELEMENT_SET_NO":"999","INCLINATION":"53.0541","DECAY_DATE":null,"PERIAPSIS":"546.148","REV_AT_EPOCH":"4480","REF_FRAME":"TEME","ARG_OF_PERICENTER":"72.9973","EPHEMERIS_TYPE":"0","TLE_LINE2":"2 48321  53.0541 287.8174 0001582  72.9973 287.1189 15.06390331 44801","MEAN_ANOMALY":"287.1189","MEAN_MOTION_DDOT":"0.0000000000000","MEAN_MOTION_DOT":"-0.00000705","OBJECT_TYPE":"PAYLOAD","APOAPSIS":"548.339","OBJECT_NAME":"STARLINK-2457"},{"OBJECT_NAME":"STARLINK-2477","APOAPSIS":"548.362","OBJECT_TYPE":"PAYLOAD","MEAN_MOTION_DDOT":"0.0000000000000","MEAN_ANOMALY":"300.0420","MEAN_MOTION_DOT":"-0.00009016","EPHEMERIS_TYPE":"0","ARG_OF_PERICENTER":"60.0723","TLE_LINE2":"2 48322  53.0544 289.3231 0001560  60.0723 300.0420 15.06377717 44168","REF_FRAME":"TEME","REV_AT_EPOCH":"4416","PERIAPSIS":"546.201","DECAY_DATE":null,"SEMIMAJOR_AXIS":"6925.417","RA_OF_ASC_NODE":"289.3231","ELEMENT_SET_NO":"999","INCLINATION":"53.0544","CLASSIFICATION_TYPE":"U","TIME_SYSTEM":"UTC","GP_ID":"195893859","ECCENTRICITY":"0.00015600","EPOCH":"2022-02-13T09:39:54.670176","BSTAR":"-0.00058746000000","MEAN_ELEMENT_THEORY":"SGP4","TLE_LINE1":"1 48322U 21036AY  22044.40271609 -.00009016  00000-0 -58746-3 0  9993","LAUNCH_DATE":"2021-04-29","CENTER_NAME":"EARTH","RCS_SIZE":"MEDIUM","COUNTRY_CODE":"US","MEAN_MOTION":"15.06377717","NORAD_CAT_ID":"48322","FILE":"3299685","OBJECT_ID":"2021-036AY","SITE":"AFETR","PERIOD":"95.594"},{"OBJECT_TYPE":"PAYLOAD","MEAN_MOTION_DDOT":"0.0000000000000","MEAN_ANOMALY":"305.5103","MEAN_MOTION_DOT":"-0.00000237","OBJECT_NAME":"STARLINK-2515","APOAPSIS":"548.344","REV_AT_EPOCH":"4481","PERIAPSIS":"546.062","EPHEMERIS_TYPE":"0","ARG_OF_PERICENTER":"54.6040","TLE_LINE2":"2 48323  53.0538 287.5680 0001648  54.6040 305.5103 15.06403394 44819","REF_FRAME":"TEME","CLASSIFICATION_TYPE":"U","TIME_SYSTEM":"UTC","ECCENTRICITY":"0.00016480","GP_ID":"195902903","EPOCH":"2022-02-13T19:07:51.067776","BSTAR":"0.00000300700000","DECAY_DATE":null,"SEMIMAJOR_AXIS":"6925.338","RA_OF_ASC_NODE":"287.5680","ELEMENT_SET_NO":"999","INCLINATION":"53.0538","COUNTRY_CODE":"US","MEAN_MOTION":"15.06403394","NORAD_CAT_ID":"48323","FILE":"3299911","OBJECT_ID":"2021-036AZ","SITE":"AFETR","PERIOD":"95.592","MEAN_ELEMENT_THEORY":"SGP4","TLE_LINE1":"1 48323U 21036AZ  22044.79711884 -.00000237  00000-0  30070-5 0  9997","CENTER_NAME":"EARTH","LAUNCH_DATE":"2021-04-29","RCS_SIZE":"LARGE"}];
